OBJECT_NAME,OBJECT_ID,EPOCH,MEAN_MOTION,ECCENTRICITY,INCLINATION,RA_OF_ASC_NODE,ARG_OF_PERICENTER,MEAN_ANOMALY,EPHEMERIS_TYPE,CLASSIFICATION_TYPE,NORAD_CAT_ID,ELEMENT_SET_NO,REV_AT_EPOCH,BSTAR,MEAN_MOTION_DOT,MEAN_MOTION_DDOT
APRIZESAT 1,2004-025G,2026-07-11T13:19:03.574272,14.51790724,.0045812,98.6308,203.9438,81.4406,279.1975,0,U,28372,999,16544,.45608E-4,.137E-5,0
AURA,2004-026A,2026-07-11T20:10:53.872320,14.61364966,.0001272,98.3429,149.5005,92.4246,267.7100,0,U,28376,999,16981,.92214E-4,.408E-5,0
ANIK F2,2004-027A,2026-07-11T14:44:30.112224,1.00271118,.0003559,3.3479,79.1192,30.6687,289.7300,0,U,28378,999,4150,0,-.48E-6,0
COSMOS 2407,2004-028A,2026-07-11T17:04:16.231008,13.76336372,.0039067,82.9588,56.6682,181.8019,243.1850,0,U,28380,999,10325,.2531E-4,.4E-6,0
SHIJIAN-6 01A (SJ-6 01A),2004-035A,2026-07-11T14:50:36.163104,15.18352691,.0007435,97.5859,219.7903,62.6656,297.5333,0,U,28413,999,19117,.24068E-3,.4877E-4,0
SHIJIAN-6 01B (SJ-6 01B),2004-035B,2026-07-11T21:28:35.757984,15.06500289,.000658,97.6052,210.4461,67.4275,292.7648,0,U,28414,999,19054,.13803E-3,.1977E-4,0
COSMOS 2408,2004-037A,2026-07-11T19:49:55.952256,12.45680902,.0015613,82.4867,310.4287,210.8662,149.1503,0,U,28419,999,99097,.13816E-3,.3E-6,0
COSMOS 2409,2004-037B,2026-07-11T20:58:27.490656,12.45323705,.0013036,82.4870,313.6361,221.8808,138.1276,0,U,28420,999,99062,-.18544E-3,-.17E-6,0
AMC-15,2004-041A,2026-07-11T16:28:50.302848,1.00271286,.0002276,0.0361,301.1807,187.6988,302.8652,0,U,28446,999,7954,0,-.84E-6,0
JB-3 3 (ZY 2C),2004-044A,2026-07-11T08:44:42.912384,15.19507916,.00344025,97.2788,345.0811,134.4174,225.9886,0,U,28470,999,19145,.12878634E-3,.2709E-4,0
NAVSTAR 56 (USA 180),2004-045A,2026-07-11T17:37:53.702112,2.00556859,.0170119,55.1204,323.9078,316.9752,44.7539,0,U,28474,999,15892,0,-.85E-6,0
SWIFT,2004-047A,2026-07-11T18:47:30.602112,15.70879097,.0001599,20.5531,354.8298,342.8184,17.2208,0,U,28485,999,19073,.31337E-3,.42082E-3,0
NANOSAT-1,2004-049B,2026-07-11T20:14:03.594624,14.80207016,.0003524,98.2305,330.1115,195.3532,164.7572,0,U,28493,999,15909,.78983E-4,.545E-5,0
COSMOS 2414,2005-002A,2026-07-11T14:45:47.659680,13.87928028,.0038692,82.9486,25.1640,259.4359,100.2445,0,U,28521,999,8720,.36259E-4,.59E-6,0
NSS-10,2005-003A,2026-07-11T11:40:07.656672,1.00271115,.00025709,6.5079,70.1545,36.8050,320.0174,0,U,28526,999,5339,0,-.253E-5,0
INMARSAT 4-F1,2005-009A,2026-07-11T17:49:37.577856,1.00270973,.0002499,5.2002,42.7797,72.5823,259.7934,0,U,28628,999,7791,0,.32E-6,0
IRS-P5 (CARTOSAT-1),2005-017A,2026-07-11T15:20:52.450080,14.91111805,.0001577,97.5306,214.5947,56.0497,304.0872,0,U,28649,999,14746,.67981E-4,.622E-5,0
DIRECTV 8,2005-019A,2026-07-11T16:24:35.711424,1.00271011,.0003024,0.0189,74.7854,50.6733,291.2238,0,U,28659,999,7731,0,.6E-7,0
GALAXY 28 (G-28),2005-022A,2026-07-11T20:16:18.377760,1.00271019,.0002297,3.3602,78.6315,29.4253,98.6573,0,U,28702,999,5222,0,-.2E-5,0
SJ-7,2005-024A,2026-07-11T16:24:20.791008,15.21904022,.0013879,97.7279,223.4502,310.2629,49.7391,0,U,28737,999,15175,.20478E-3,.4598E-4,0
THAICOM 4,2005-028A,2026-07-11T19:15:29.880288,1.00269596,.000139,0.3063,85.5355,12.0878,240.4444,0,U,28786,999,5249,0,-.358E-5,0
REIMEI (INDEX),2005-031B,2026-07-11T19:50:50.008416,15.11147083,.0019821,98.0164,318.0073,31.7578,328.4842,0,U,28810,999,13471,.19334E-3,.3184E-4,0
ANIK F1R,2005-036A,2026-07-11T16:28:12.863136,1.00271295,.0003723,4.3726,76.2751,26.6074,326.4603,0,U,28868,999,4669,0,-.75E-6,0
NAVSTAR 57 (USA 183),2005-038A,2026-07-11T20:35:39.724224,2.00563885,.0128195,54.8582,272.1809,296.3692,119.0147,0,U,28874,999,15233,0,0,0
SYRACUSE 3A,2005-041B,2026-07-11T20:37:21.049824,1.00272652,.0002748,4.7031,75.5370,29.5413,180.6439,0,U,28885,999,7599,0,.128E-5,0
BEIJING 1,2005-043A,2026-07-11T19:57:24.426144,14.63547829,.0013971,98.2935,326.1857,200.0839,159.9815,0,U,28890,999,10425,.99442E-4,.467E-5,0
SINAH 1,2005-043D,2026-07-11T20:40:06.741696,14.64174270,.0014147,98.2889,327.3325,194.0468,166.0342,0,U,28893,999,10413,.39493E-4,.158E-5,0
CUBESAT XI-V,2005-043F,2026-07-11T09:17:30.194592,14.72696464,.00151315,98.3011,348.5214,126.3821,233.8784,0,U,28895,999,10531,.13420163E-3,.804E-5,0
INMARSAT 4-F2,2005-044A,2026-07-11T21:05:03.395328,1.00271139,.0002792,5.1258,43.6537,59.7098,286.1754,0,U,28899,999,7576,0,-.261E-5,0
COSMOS 2416 (RODNIK-S 1),2005-048A,2026-07-11T19:58:42.549888,12.55601011,.0009216,82.4697,291.8989,114.3649,11.1168,0,U,28908,999,94199,.44199E-5,.11E-6,0
METEOSAT-9 (MSG-2),2005-049B,2026-07-11T17:26:38.772096,1.00270407,.0002049,9.4145,53.9209,357.1027,185.9350,0,U,28912,999,724,0,.12E-5,0
EUTELSAT 174A,2005-052A,2026-07-11T14:50:49.829856,1.00270269,.0005784,4.2778,76.2239,36.7704,213.1891,0,U,28924,999,5257,0,.9E-7,0
ECHOSTAR 10,2006-003A,2026-07-11T16:27:20.446848,1.00270537,.0001098,0.0378,303.6366,141.3638,341.2468,0,U,28935,999,7470,0,-.5E-6,0
SPAINSAT,2006-007A,2026-07-11T06:44:08.847744,1.00270284,.0004627,0.6228,86.1239,23.6398,250.2819,0,U,28945,999,7445,0,-.211E-5,0
JCSAT-5A,2006-010A,2026-07-11T21:01:48.705024,1.00270851,.000165,1.1706,83.9420,22.3621,270.9651,0,U,29045,999,7401,0,-.325E-5,0
ASTRA 1KR,2006-012A,2026-07-11T20:29:32.110368,1.00268806,.000332,0.5349,83.1847,19.8473,153.1171,0,U,29055,999,4594,0,.122E-5,0
RESURS-DK 1,2006-021A,2026-07-11T14:59:58.583040,15.13311404,.0006915,69.9312,276.2898,275.2250,84.8127,0,U,29228,999,10627,.62717E-4,.1011E-4,0
GALAXY 16 (G-16),2006-023A,2026-07-11T19:55:56.004384,1.00271248,.0002438,0.0362,113.8531,6.5926,9.2682,0,U,29236,999,7322,0,-.123E-5,0
ARIRANG-2 (KOMPSAT-2),2006-031A,2026-07-11T19:55:32.206368,14.64674855,.0014565,97.8316,16.0859,1.6645,122.4104,0,U,29268,999,6508,.60458E-4,.277E-5,0
EUTELSAT 33F,2006-032A,2026-07-11T19:55:14.287872,1.00269994,.0003401,1.7226,81.9703,25.7614,153.8737,0,U,29270,999,4755,0,.158E-5,0
JCSAT-3A,2006-033A,2026-07-11T19:17:59.640000,1.00269533,.0002479,0.0172,323.2251,165.6300,218.3408,0,U,29272,999,4798,0,-.341E-5,0
KOREASAT 5 (MUGUNGWHA 5),2006-034A,2026-07-11T19:13:45.045984,1.00271562,.000168,1.8459,82.6829,78.4254,170.0922,0,U,29349,999,4156,0,-.355E-5,0
HINODE (SOLAR-B),2006-041A,2026-07-11T15:28:01.723296,14.68655499,.0016745,98.0548,208.4365,206.0428,153.9936,0,U,29479,999,5846,.68436E-4,.35E-5,0
NAVSTAR 58 (USA 190),2006-042A,2026-07-11T16:03:00.279936,2.00568391,.01070755,54.7126,150.3670,55.0446,122.5056,0,U,29486,999,14488,0,.3E-6,0
DIRECTV 9S,2006-043A,2026-07-11T19:55:18.562944,1.00270953,.0004985,2.4816,80.6048,32.6674,14.0852,0,U,29494,999,5163,0,-.112E-5,0
OPTUS D1,2006-043B,2026-07-11T19:24:43.993728,1.00270435,.0003307,3.0954,79.3531,30.1084,263.3974,0,U,29495,999,7236,0,-.183E-5,0
SHIJIAN-6 02A (SJ-6 02A),2006-046A,2026-07-11T21:24:03.026880,15.17222112,.0004606,97.6357,234.1456,71.4524,288.7209,0,U,29505,999,7601,.15915E-3,.3095E-4,0
SHIJIAN-6 02B (SJ-6 02B),2006-046B,2026-07-11T20:55:35.918400,15.01433461,.0013842,97.7157,221.7778,347.6495,12.4388,0,U,29506,999,7444,.45503E-4,.527E-5,0
DMSP 5D-3 F17 (USA 191),2006-050A,2026-07-11T20:20:59.095680,14.14996026,.0009921,98.7385,198.9139,352.6646,7.4381,0,U,29522,999,1591,.17982E-4,-.9E-7,0
BADR-4,2006-051A,2026-07-11T19:56:01.494240,1.00269103,.0004715,2.0656,80.8499,28.0753,154.2686,0,U,29526,999,5151,0,.158E-5,0
NAVSTAR 59 (USA 192),2006-052A,2026-07-11T08:25:02.490528,2.00559410,.00847946,54.9326,213.0483,90.9918,270.0434,0,U,29601,999,14389,0,.105E-5,0
WILDBLUE-1,2006-054A,2026-07-11T14:44:30.112224,1.00270918,.0001242,2.8633,80.1774,33.2348,286.0246,0,U,29643,999,5403,0,-.47E-6,0
LAPAN-TUBSAT,2007-001A,2026-07-11T19:58:50.955744,14.85976691,.0013595,98.1353,192.6128,103.3605,256.9126,0,U,29709,999,5481,.10673E-3,.876E-5,0
THEMIS A,2007-004A,2026-07-10T04:59:00.303360,0.87843993,.83599694,8.6664,107.7658,203.7078,64.0534,0,U,30580,999,4148,-.26021308E-1,-.549E-5,0
SKYNET 5A,2007-007B,2026-07-11T18:52:21.809856,1.00270634,.0003701,5.3609,73.4405,40.5293,194.0242,0,U,30794,999,7094,0,-.272E-5,0
THEMIS D,2007-004D,2026-07-11T09:34:26.047776,0.87589137,.83271718,7.8464,79.2964,234.6711,354.4938,0,U,30797,999,4128,0,-.573E-5,0
THEMIS E,2007-004E,2026-07-03T23:29:48.598080,0.88041892,.8437049,6.5283,97.0944,218.5457,13.1584,0,U,30798,999,6606,0,-.4E-5,0
ANIK F3,2007-009A,2026-07-11T16:24:35.711424,1.00271975,.0002479,1.2581,83.5592,36.8423,296.6220,0,U,31102,999,4680,0,.3E-7,0
HAIYANG-1B,2007-010A,2026-07-11T19:50:17.173824,14.31032783,.0014548,98.3512,173.7181,125.1075,235.1475,0,U,31113,999,416,.31073E-4,.4E-6,0
SAUDISAT 3,2007-012B,2026-07-11T19:22:37.593120,14.71439201,.001537,98.1466,143.2258,144.8972,215.3250,0,U,31118,999,3136,.25979E-4,.11E-5,0
SAUDICOMSAT 7,2007-012C,2026-07-11T19:38:43.965888,14.66134524,.0056854,98.3795,167.4565,118.6401,242.0536,0,U,31119,999,2604,.56316E-4,.264E-5,0
SAUDICOMSAT 6,2007-012E,2026-07-11T20:32:20.012352,14.62582926,.0070423,98.4114,160.8339,249.6899,109.6724,0,U,31121,999,2379,.48827E-4,.202E-5,0
SAUDICOMSAT 5,2007-012H,2026-07-11T19:48:56.380320,14.68189454,.0048428,98.3506,168.2056,49.2605,311.2788,0,U,31124,999,2721,.68509E-4,.347E-5,0
SAUDICOMSAT 3,2007-012J,2026-07-11T21:06:25.521120,14.70746738,.0038494,98.3161,168.8072,335.8864,24.0538,0,U,31125,999,2845,.78991E-4,.433E-5,0
SAUDICOMSAT 4,2007-012L,2026-07-11T21:17:49.227648,14.64533726,.0063316,98.4001,165.9639,180.0667,180.0537,0,U,31127,999,2490,.48959E-4,.213E-5,0
ASTRA 1L,2007-016A,2026-07-11T08:18:34.530336,1.00270600,.00052479,1.3814,81.3786,33.1637,274.8448,0,U,31306,999,4522,0,-.18E-5,0
GALAXY 17 (G-17),2007-016B,2026-07-11T19:59:48.131808,1.00270656,.0003548,3.0313,79.5891,33.0461,32.0248,0,U,31307,999,7005,0,-.205E-5,0
YAOGAN-2,2007-019A,2026-07-11T14:03:28.925280,14.82723042,.002019,98.2620,53.9871,191.3394,168.7366,0,U,31490,999,3123,.90662E-4,.676E-5,0
GLOBALSTAR M069,2007-020C,2026-07-11T01:00:12.333888,12.23472119,.00017713,52.0007,184.6078,201.1877,199.3663,0,U,31573,999,88172,.25892748E-3,-.65E-6,0
